,X,Y,OBJECTID,ID,Letter,Address,City,State,Zip,Phone,Lat,Long_,Restaurant
85,-93.3152,44.8837,86,86,b,2800 West 66th Street,Richfield,MN,55423,(612) 869-1008,44.8837,-93.3152,Burger King
96,-93.2781,44.9423,97,97,b,3342 Nicollet Avenue South,Minneapolis,MN,55408,(612) 824-9828,44.9423,-93.2781,Burger King
128,-93.28,44.8265,129,129,b,100 West 98th Street,Bloomington,MN,55420,(952) 888-0616,44.8265,-93.28,Burger King
158,-93.065,44.9776,159,159,b,"841 Maryland Avenue, East",St. Paul,MN,55106,(651) 771-9666,44.9776,-93.065,Burger King
416,-93.3935,45.1998,417,417,b,123 West Main Street,Anoka,MN,55303,(763) 427-2830,45.1998,-93.3935,Burger King
419,-94.1977,45.5532,420,420,b,3310 Division Road,St. Cloud,MN,56301,(320) 253-4140,45.5532,-94.1977,Burger King
423,-93.1666,45.0056,424,424,b,2151 North Snelling Ave.,Roseville,MN,55113,(651) 636-7972,45.0056,-93.1666,Burger King
437,-93.365,44.972,438,438,b,6660 Wayzata Blvd.,Golden Valley,MN,55426,(763) 546-2162,44.972,-93.365,Burger King
444,-93.2472,45.0051,445,445,b,"1717 Central Avenue, N. E.",Minneapolis,MN,55413,(612) 788-3838,45.0051,-93.2472,Burger King
483,-93.2181,44.732,484,484,b,"7501 - 150th Street, West",Apple Valley,MN,55124,(952) 432-1771,44.732,-93.2181,Burger King
878,-93.2758,44.8621,879,879,b,140 E. 78th Street,Richfield,MN,55423,(952) 861-3920,44.8621,-93.2758,Burger King
896,-93.1141,44.9559,897,897,b,333 University Avenue,St. Paul,MN,55103,(651) 221-2677,44.9559,-93.1141,Burger King
1012,-93.4989,44.971,1013,1013,b,1200 East Wayzata Boulevard,Wayzata,MN,55391,(612) 475-3300,44.971,-93.4989,Burger King
1315,-92.4632,44.0167,1316,1316,b,615 South Broadway,Rochester,MN,55904,(507) 288-8932,44.0167,-92.4632,Burger King
1392,-91.6689,44.0484,1393,1393,b,1215 Gilmore Ave,Winona,MN,55987,(507) 452-6606,44.0484,-91.6689,Burger King
1423,-94.1768,46.3622,1424,1424,b,808 West Washington,Brainerd,MN,56401,(218) 829-4290,46.3622,-94.1768,Burger King
1554,-93.3424,43.6536,1555,1555,b,2011 East Main,Albert Lea,MN,56007,(507) 373-3365,43.6536,-93.3424,Burger King
1555,-93.2343,45.1941,1556,1556,b,12309 Central Avenue,Blaine,MN,55434,(763) 757-2140,45.1941,-93.2343,Burger King
1641,-94.1437,45.5656,1642,1642,b,"222 Lincoln Avenue, S. E.",St. Cloud,MN,56304,(320) 255-1174,45.5656,-94.1437,Burger King
1708,-93.1426,44.9168,1709,1709,b,1600 West 7th Street,St. Paul,MN,55102,(651) 227-6424,44.9168,-93.1426,Burger King
1780,-92.1283,46.8003,1781,1781,b,208 E. Central Entrance,Duluth,MN,55811,(218) 722-8687,46.8003,-92.1283,Burger King
1816,-93.3092,44.8404,1817,1817,b,"9008 Penn Avenue, South",Bloomington,MN,55431,(954) 888-8000,44.8404,-93.3092,Burger King
1885,-93.2709,44.9758,1886,1886,b,"200 South 6th Streest, Pillsbury Center",Minneapolis,MN,55402-1494,(612) 332-8107,44.9758,-93.2709,Burger King
2029,-95.3808,45.8627,2030,2030,b,303 30th Avenue,Alexandria,MN,56308,(320) 762-0530,45.8627,-95.3808,Burger King
2036,-93.0804,44.8966,2037,2037,b,1650 Robert Street South,West St. Paul,MN,55118,(651) 451-0456,44.8966,-93.0804,Burger King
2273,-93.4628,45.0115,2274,2274,b,14430 28th Place North,Plymouth,MN,55447,(763) 559-2557,45.0115,-93.4628,Burger King
2286,-93.5079,44.8008,2287,2287,b,1330 East 1st Avenue,Shakopee,MN,55379,(612) 445-6277,44.8008,-93.5079,Burger King
2293,-93.4837,44.8619,2294,2294,b,16345 West 78th Street,Eden Prairie,MN,55344,(952) 934-2251,44.8619,-93.4837,Burger King
2314,-93.432,44.8535,2315,2315,b,8340 Crystal View Drive,Eden Prairie,MN,55344,(952) 944-0210,44.8535,-93.432,Burger King
2316,-93.2792,44.7452,2317,2317,b,14251 Nicolet Avenue,Burnsville,MN,55337,(952) 435-6122,44.7452,-93.2792,Burger King
2387,-93.2141,45.1075,2388,2388,b,2651 County Road I,Moundsview,MN,55112,(763) 784-8507,45.1075,-93.2141,Burger King
2391,-93.4185,44.7174,2392,2392,b,5020 160th Street S. E.,Prior Lake,MN,55372,(952) 447-3312,44.7174,-93.4185,Burger King
2408,-93.2598,44.7843,2409,2409,b,1150 East Highway 13,Burnsville,MN,55337,(952) 890-7229,44.7843,-93.2598,Burger King
2418,-95.0424,45.1115,2419,2419,b,1201 South 1st Street,Willmar,MN,56201,(320) 235-1379,45.1115,-95.0424,Burger King
2420,-92.9979,45.2795,2421,2421,b,1131 Broadway,Forest Lake,MN,55025,(651) 464-4840,45.2795,-92.9979,Burger King
2422,-92.4986,44.0556,2423,2423,b,"4107 Highway 52 North, East Frontage Road",Rochester,MN,55901,(507) 281-2923,44.0556,-92.4986,Burger King
2445,-93.5724,44.9876,2446,2446,b,1948 West Wayzata Boulevard,Long Lake,MN,55356,(952) 475-3493,44.9876,-93.5724,Burger King
2503,-93.3887,44.9371,2504,2504,b,"3650 Aquila Avenue, South",St. Louis Park,MN,55426,(952) 936-0440,44.9371,-93.3887,Burger King
2524,-93.7962,45.2999,2525,2525,b,200 Lauring Lane,Monticello,MN,55362,(763) 295-2333,45.2999,-93.7962,Burger King
2592,-93.2871,44.6967,2593,2593,b,17395 Kenwood Trail,Lakeville,MN,55044,(952) 435-8155,44.6967,-93.2871,Burger King
2623,-93.3872,45.1092,2624,2624,b,8501 Xylon Avenue North,Brooklyn Park,MN,55445,(763) 424-4259,45.1092,-93.3872,Burger King
2645,-93.4554,45.1043,2646,2646,b,13840 Grove Drive,Maple Grove,MN,55369,(763) 420-7120,45.1043,-93.4554,Burger King
2674,-93.2905,44.2977,2675,2675,b,1501 Nw 7 Street,Faribault,MN,55021,(507) 332-7960,44.2977,-93.2905,Burger King
2745,-93.4067,45.0337,2746,2746,b,10000 County Road 9,Plymouth,MN,55442-2896,(763) 559-7885,45.0337,-93.4067,Burger King
2812,-93.1882,45.0204,2813,2813,b,2080 West County Road C,Roseville,MN,55113,(651) 631-1798,45.0204,-93.1882,Burger King
2905,-93.5608,45.3115,2906,2906,b,"850 Freeport Ave, Elk River Plaza",Elk River,MN,55330-2646,(763) 441-6050,45.3115,-93.5608,Burger King
2909,-96.7678,46.8511,2910,2910,b,2412 Eighth Street South,Moorhead,MN,56560,(218) 236-7815,46.8511,-96.7678,Burger King
2954,-93.3189,45.1818,2955,2955,b,2025 Northdale Boulevard,Coon Rapids,MN,55433,(763) 754-1058,45.1818,-93.3189,Burger King
3031,-92.0933,46.7817,3032,3032,b,436 Canal Park Drive,Duluth,MN,55802,(218) 722-7349,46.7817,-92.0933,Burger King
3055,-93.1598,44.8325,3056,3056,b,1275 Town Centre Drive,Eagan,MN,55123,(651) 456-0759,44.8325,-93.1598,Burger King
3093,-94.8384,47.4567,3094,3094,b,"100 Paul Bunyan Drive, Sw",Bemidji,MN,56601,(218) 751-1257,47.4567,-94.8384,Burger King
3193,-93.9719,44.1671,3194,3194,b,1404 Madison Avenue,Mankato,MN,56001,(507) 388-4700,44.1671,-93.9719,Burger King
3225,-93.1638,45.1422,3226,3226,b,9390 Lexington Avenue,Lexington,MN,55014,(763) 785-1838,45.1422,-93.1638,Burger King
3277,-92.4437,44.0107,3278,3278,b,"1021 Fifteenth Avenue, Se",Rochester,MN,55904,(507) 282-4239,44.0107,-92.4437,Burger King
3303,-95.7717,44.4505,3304,3304,b,1229 East College Drive,Marshall,MN,56258,(507) 532-3955,44.4505,-95.7717,Burger King
3305,-92.985,45.0179,3306,3306,b,2535 Division Street North,North St Paul,MN,55109,(651) 779-7188,45.0179,-92.985,Burger King
3382,-92.9708,44.9268,3383,3383,b,1501 Weir Drive,Woodbury,MN,55125,(651) 731-8720,44.9268,-92.9708,Burger King
3389,-93.107,44.9412,3390,3390,b,100 Grand Avenue East,St. Paul,MN,55075-1110,(651) 451-2701,44.9412,-93.107,Burger King
3424,-92.4619,44.0385,3425,3425,b,1550 North Broadway,Rochester,MN,55906,(507) 280-9357,44.0385,-92.4619,Burger King
3466,-93.218,44.9193,3467,3467,b,4605 Hiawatha Ave.,Minneapolis,MN,55406,(612) 729-9559,44.9193,-93.218,Burger King
3544,-93.0587,45.0058,3545,3545,b,2316 Maplewood Mall,Maplewood,MN,55109,(651) 779-8748,45.0058,-93.0587,Burger King
3720,-93.081,44.9324,3721,3721,b,455 South Robert St.,St. Paul,MN,55107,(651) 228-0016,44.9324,-93.081,Burger King
3729,-93.1473,45.0551,3730,3730,b,3751 N. Lexington Ave.,Arden Hills,MN,55126,(651) 490-0161,45.0551,-93.1473,Burger King
3735,-93.3044,45.1094,3736,3736,b,8510 Edinburgh Center Drive,Brooklyn Park,MN,55443,(763) 493-5255,45.1094,-93.3044,Burger King
3756,-93.3839,44.8073,3757,3757,b,10801 Bloomington Ferry Road,Bloomington,MN,55438,(952) 942-0695,44.8073,-93.3839,Burger King
3762,-92.1609,46.8064,3763,3763,b,"1600 Miller Trunk Hwy., Miller Hill Mall-Fdct",Duluth,MN,55811-5607,(218) 722-5121,46.8064,-92.1609,Burger King
3894,-93.2057,44.7882,3895,3895,b,1980 Rahncliff Court,Eagan,MN,55122,(651) 452-5332,44.7882,-93.2057,Burger King
3910,-92.0543,46.8139,3911,3911,b,2120 London Road,Duluth,MN,55812,(218) 724-1828,46.8139,-92.0543,Burger King
3914,-92.9633,44.963,3915,3915,b,7051 10th Street North,Oakdale,MN,55128,(651) 735-5515,44.963,-92.9633,Burger King
3925,-94.4485,43.6521,3926,3926,b,1022 East Blue Earth Avenue,Fairmont,MN,56031,(507) 238-9400,43.6521,-94.4485,Burger King
3957,-93.0505,45.0804,3958,3958,b,1215 Gun Club Road,White Bear Lake,MN,55110,(651) 429-6986,45.0804,-93.0505,Burger King
3975,-94.0173,44.1602,3976,3976,b,1318 South Riverfront Drive,Mankato,MN,56001,(507) 345-5516,44.1602,-94.0173,Burger King
4055,-93.1057,44.9926,4056,4056,b,1698 Rice Street,St. Paul,MN,55113,(651) 489-2636,44.9926,-93.1057,Burger King
4111,-92.846,44.7158,4112,4112,b,100 West 33rd Street,Hastings,MN,55033,(651) 438-3686,44.7158,-92.846,Burger King
4114,-93.2564,45.1263,4115,4115,b,590 Northtown Drive,Blaine,MN,55434,(763) 786-8581,45.1263,-93.2564,Burger King
4257,-93.359,45.2068,4258,4258,b,13005 Riverdale Drive,Coon Rapids,MN,55448,(763) 421-0029,45.2068,-93.359,Burger King
4343,-92.7478,44.0283,4344,4344,b,"14 East Old Veterans Memorial,, Highway East",Kasson,MN,55944-1202,(507) 634-4252,44.0283,-92.7478,Burger King
4378,-93.3222,44.88,4379,4379,b,3538 Southdale Center,Edina,MN,55435,(612) 922-4257,44.88,-93.3222,Burger King
4384,-93.2439,44.0843,4385,4385,b,735 Bridge Street,Owatonna,MN,55060,(507) 455-9700,44.0843,-93.2439,Burger King
4391,-93.0003,44.8734,4392,4392,b,1598 Hastings Road,Newport,MN,55055,(651) 458-9445,44.8734,-93.0003,Burger King
4399,-93.2414,44.8523,4400,4400,b,"330 North Garden, Mall Of Americas",Bloomington,MN,55425,(952) 851-0786,44.8523,-93.2414,Burger King
4444,-93.2669,45.1248,4445,4445,b,8501 Springbrook Drive,Coon Rapids,MN,55433,(763) 786-4127,45.1248,-93.2669,Burger King
4603,-96.747,46.876,4604,4604,b,100 21st Street North,Moorhead,MN,56560,(218) 236-6221,46.876,-96.747,Burger King
4617,-93.1065,45.0423,4618,4618,b,3333 Rice Street,Shoreview,MN,55126,(651) 483-0962,45.0423,-93.1065,Burger King
4677,-94.393,44.8943,4678,4678,b,1185 West Highway 7,Hutchinson,MN,55350,(320) 587-9225,44.8943,-94.393,Burger King
4688,-93.2766,45.0612,4689,4689,b,5105 Industrial Boulevard,Edina,MN,55439,(952) 896-9871,45.0612,-93.2766,Burger King
4725,-93.2318,45.2882,4726,4726,b,1536 175th Lane North East,Ham Lake,MN,55304,(763) 434-5242,45.2882,-93.2318,Burger King
4994,-92.9799,43.6788,4995,4995,b,1409 4th Street Nw,Austin,MN,55912,(507) 433-1505,43.6788,-92.9799,Burger King
4999,-93.5545,45.5783,5000,5000,b,108 Ninth Avenue Circle South,Princeton,MN,55371,(763) 389-5180,45.5783,-93.5545,Burger King
5038,-95.8364,46.815,5039,5039,b,471 East Highway 10,Detroit Lakes,MN,56501,(218) 847-8622,46.815,-95.8364,Burger King
5071,-93.5263,47.2358,5072,5072,b,126 N. E. 4th. Street,Grand Rapids,MN,55744,(218) 326-9205,47.2358,-93.5263,Burger King
5075,-93.6375,44.6708,5076,5076,b,255 Triangle Lane,Jordan,MN,55352,(952) 492-2237,44.6708,-93.6375,Burger King
5087,-92.9305,46.0112,5088,5088,b,403 Fire Monument Road,Hinckley,MN,55037,(320) 384-0040,46.0112,-92.9305,Burger King
5114,-93.3608,45.0507,5115,5115,b,5358 West Broadway,Crystal,MN,55428,(763) 533-6238,45.0507,-93.3608,Burger King
5163,-94.0327,44.1795,5164,5164,b,1745 Commerce Drive,North Mankato,MN,56003,(507) 345-8872,44.1795,-94.0327,Burger King
5191,-94.1661,45.5888,5192,5192,b,15 South Benton Drive,Sauk Rapids,MN,56379,(320) 654-8283,45.5888,-94.1661,Burger King
5370,-93.2817,45.0132,5371,5371,b,3200 Washington Avenue North,Minneapolis,MN,55412,(612) 522-5433,45.0132,-93.2817,Burger King
5393,-93.2799,44.8836,5394,5394,b,96 West 66 Street,Richfield,MN,55423,(952) 866-5292,44.8836,-93.2799,Burger King
5456,-92.2828,44.4603,5457,5457,b,1535 North Lakeshore Drive,Lake City,MN,55041,(651) 345-2345,44.4603,-92.2828,Burger King
5529,-93.266,45.1666,5530,5530,b,10861 University Avenue N. E.,Blaine,MN,55434,(763) 755-6977,45.1666,-93.266,Burger King
5530,-94.8099,45.6698,5531,5531,b,318 East Kraft Drive,Melrose,MN,56352,(320) 256-4100,45.6698,-94.8099,Burger King
5543,-96.7468,46.8682,5544,5544,b,"Moorhead State University, 725 South 14th Street",Moorhead,MN,56560,(218) 236-2500,46.8682,-96.7468,Burger King
5569,-93.1102,44.9412,5570,5570,b,244 Grand Avenue,St. Paul,MN,55102,(651) 224-7173,44.9412,-93.1102,Burger King
5579,-93.0731,44.9586,5580,5580,b,695 East 7 Street,St. Paul,MN,55106,(651) 776-6055,44.9586,-93.0731,Burger King
5827,-94.3463,45.9757,5828,5828,b,1112 First Avenues N. E.,Little Falls,MN,56345,(320) 632-8216,45.9757,-94.3463,Burger King
5955,-94.133,44.7691,5956,5956,b,2200 10th Street East,Glencoe,MN,55336,(320) 864-5107,44.7691,-94.133,Burger King
5956,-95.1293,46.449,5957,5957,b,849 North Jefferson,Wadena,MN,56482,(218) 631-3351,46.449,-95.1293,Burger King
5962,-93.1355,44.7315,5963,5963,b,3460 150th Street West,Rosemount,MN,55068,(651) 423-6567,44.7315,-93.1355,Burger King
5985,-95.3664,45.8908,5986,5986,b,209 Nokomis Street,Alexandria,MN,56308,(320) 763-1675,45.8908,-95.3664,Burger King
6033,-93.1468,44.6403,6034,6034,b,120 Elm Street,Farmington,MN,55024,(651) 463-7172,44.6403,-93.1468,Burger King
6088,-92.9871,45.6844,6089,6089,b,1560 West 4th Street,Rush City,MN,55069,(320) 358-4314,45.6844,-92.9871,Burger King
6095,-92.9051,44.9469,6096,6096,b,9896 Norma Lane,Woodbury,MN,55125,(651) 714-7181,44.9469,-92.9051,Burger King
6115,-93.2274,45.0002,6116,6116,b,1500 Stinson Boulevard Ne,Minneapolis,MN,55413,(612) 331-8582,45.0002,-93.2274,Burger King
6219,-93.1969,44.8867,6220,6220,b,"Minneapolis/St Paul Airport, Red Concourse/4300 Glumack Rd., Unit 64h.54",St. Paul,MN,55111,(),44.8867,-93.1969,Burger King
6246,-95.1127,44.5413,6247,6247,b,516 East Bridge Street,Redwood Falls,MN,56283,(507) 637-3169,44.5413,-95.1127,Burger King
6247,-92.9377,44.8298,6248,6248,b,8481 S. E. Point Douglas Road,Cottage Grove,MN,55016,(651) 769-1697,44.8298,-92.9377,Burger King
6318,-92.9966,45.5091,6319,6319,b,38711 Tanger Drive,North Branch,MN,55056,(651) 674-8727,45.5091,-92.9966,Burger King
6368,-92.1297,46.7602,6369,6369,b,210 South 27 Avenue,Duluth,MN,55806,(218) 529-2350,46.7602,-92.1297,Burger King
6377,-95.6037,43.631,6378,6378,b,1322 Oxford Street,Worthington,MN,56187,(507) 372-7773,43.631,-95.6037,Burger King
6379,-94.7978,46.3557,6380,6380,b,201 2nd N.E.,Staples,MN,56479,(218) 894-3202,46.3557,-94.7978,Burger King
6396,-95.6009,45.3158,6397,6397,b,"206 14th Street N,",Benson,MN,56215,(320) 843-2505,45.3158,-95.6009,Burger King
6403,-93.1969,44.8867,6404,6404,b,"Minneapolis-St Paul Airport, Main Concourse, 4300 Glumack Road, Unit 64h.03",St. Paul,MN,55111,(612) 726-5217,44.8867,-93.1969,Burger King
6407,-93.5532,45.1995,6408,6408,b,21421 South Diamond Lake Road,Rogers,MN,55374,(763) 428-4886,45.1995,-93.5532,Burger King
6508,-92.8458,45.034,6509,6509,b,5907 Neal Avenue North,Oak Park Heights,MN,55082,(651) 430-3859,45.034,-92.8458,Burger King
6509,-96.1167,46.2883,6510,6510,b,528 Western Avenue,Fergus Falls,MN,56537,(218) 739-2203,46.2883,-96.1167,Burger King
6516,-96.0632,46.2785,6517,6517,b,705 Vernon Avenue East,Fergus Falls,MN,56537,(218) 739-9330,46.2785,-96.0632,Burger King
6521,-93.4847,44.9146,6522,6522,b,17555 State Highway 7,Minnetonka,MN,55345,(952) 906-9033,44.9146,-93.4847,Burger King
6549,-93.2252,44.9737,6550,6550,b,925 Washington Avenue. Se,Minneapolis,MN,55414,(612) 379-7708,44.9737,-93.2252,Burger King
6572,-93.1969,44.8867,6573,6573,b,"Minneapolis-St. Paul Airport, Blue Concourse, Unit 64h.55",Minneapolis,MN,55111,(),44.8867,-93.1969,Burger King
6589,-94.5277,45.1265,6590,6590,b,21 Depot Street,Litchfield,MN,55355,(320) 693-0369,45.1265,-94.5277,Burger King
6621,-94.8656,45.9717,6622,6622,b,205 Lake Street,Long Prairie,MN,56347,(320) 732-1979,45.9717,-94.8656,Burger King
6682,-93.4499,45.2271,6683,6683,b,7205 Highway 10 North,Ramsey,MN,55303,(763) 433-0546,45.2271,-93.4499,Burger King
6739,-93.1799,44.4601,6740,6740,b,1301bollenbacker Drive,Northfield,MN,55057,(507) 645-9286,44.4601,-93.1799,Burger King
6792,-94.1531,45.5524,6793,6793,b,720 4th Avenue South,St. Cloud,MN,56301,(320) 255-2139,45.5524,-94.1531,Burger King
6903,-93.2641,45.0717,6904,6904,b,289 57th Avenue N.E.,Fridley,MN,55432,(763) 502-6987,45.0717,-93.2641,Burger King
6981,-94.907,47.4939,6982,6982,b,2575 Hannah Avenue N.W.,Bemidji,MN,56601,(),47.4939,-94.907,Burger King
7028,-97.02,47.9276,7029,7029,b,926 Central Avenue Ne,East Grand Forks,MN,56721,(218) 773-4121,47.9276,-97.02,Burger King
7066,-94.0561,45.4133,7067,7067,b,945 Ash Street,Clearwater,MN,55320,(320) 558-9227,45.4133,-94.0561,Burger King
7076,-93.322,45.0597,7077,7077,b,3201 County Road 10,Brooklyn Center,MN,55429,(763) 561-4790,45.0597,-93.322,Burger King
7121,-93.2899,44.9993,7122,7122,b,818 West Broadway,Minneapolis,MN,55411,(612) 588-7909,44.9993,-93.2899,Burger King
7182,-93.0197,45.0149,7183,7183,b,2440 White Bear Avenue,Maplewood,MN,55109,(651) 779-6621,45.0149,-93.0197,Burger King
7243,-93.6635,45.2436,7244,7244,b,6495 Labeux Avenue N.E.,Albertville,MN,55301,(763) 497-4992,45.2436,-93.6635,Burger King
7260,-95.0219,45.1241,7261,7261,b,1611 East Highway 12,Willmar,MN,56201,(320) 235-6812,45.1241,-95.0219,Burger King
7265,-94.9927,43.6277,7266,7266,b,2000 North Highway 71,Jackson,MN,56143,(507) 847-4647,43.6277,-94.9927,Burger King
7272,-94.4426,44.2936,7273,7273,b,1922 South Broadwy,New Ulm,MN,56073,(507) 354-1268,44.2936,-94.4426,Burger King
7356,-92.4625,43.9838,7357,7357,b,2630 S Broadway Ave,Rochester,MN,55904,(507) 536-9294,43.9838,-92.4625,Burger King
24135,-93.1633,45.1406,24136,24136,m,1 Central St,Circle Pines,MN,55014-1761,,45.1406,-93.1633,McDonald's
24187,-93.2137,45.5715,24188,24188,m,100 Garfield St S,Cambridge,MN,55008,,45.5715,-93.2137,McDonald's
24212,-93.7977,45.2948,24213,24213,m,100 Oakwood Dr,Monticello,MN,55362,,45.2948,-93.7977,McDonald's
24229,-93.5617,44.5435,24230,24230,m,100 Tenth Ave. Se Suite 2,New Prague,MN,56071,,44.5435,-93.5617,McDonald's
24237,-93.2056,45.5712,24238,24238,m,100 Walmart Ln (Walmart #2352),Cambridge,MN,55008,,45.5712,-93.2056,McDonald's
24292,-96.2129,43.6413,24293,24293,m,1001 S Kniss,Luverne,MN,56156,,43.6413,-96.2129,McDonald's
24359,-92.9863,43.6665,24360,24360,m,1009 W Oakland Ave,Austin,MN,55912-2217,,43.6665,-92.9863,McDonald's
24419,-95.0586,46.9221,24420,24420,m,101 S Park Avenue,Park Rapids,MN,56470,,46.9221,-95.0586,McDonald's
24423,-92.822,47.842,24424,24424,m,101 South Hwy 53 & Pine St,Cook,MN,55723,,47.842,-92.822,McDonald's
24541,-94.5318,45.1117,24542,24542,m,1021 East Hwy,Litchfield,MN,55355,,45.1117,-94.5318,McDonald's
24574,-93.2337,45.157,24575,24575,m,10270 Baltimore Street Ne Suite 100,Blaine,MN,55449,,45.157,-93.2337,McDonald's
24650,-94.3375,45.9701,24651,24651,m,104 Lemieur St,Little Falls,MN,56345,,45.9701,-94.3375,McDonald's
24853,-93.1448,44.8048,24854,24854,m,1075 Diffley Rd,Eagan,MN,55123,,44.8048,-93.1448,McDonald's
24891,-93.0569,45.0795,24892,24892,m,1081 Hwy 96,White Bear Lake,MN,55127,,45.0795,-93.0569,McDonald's
24942,-94.3758,44.875,24943,24943,m,1098 Hwy 15 S,Hutchinson,MN,55350-3154,,44.875,-94.3758,McDonald's
24963,-92.1296,46.8003,24964,24964,m,110 E Central Entrance,Duluth,MN,55811-5510,,46.8003,-92.1296,McDonald's
25009,-93.2634,44.9989,25010,25010,m,1100 University Ave Ne,Minneapolis,MN,55413-1222,,44.9989,-93.2634,McDonald's
25034,-93.1704,44.4492,25035,25035,m,1101 S Hwy 3,Northfield,MN,55057-3086,,44.4492,-93.1704,McDonald's
25082,-93.2454,44.0962,25083,25083,m,1105 W Frontage Rd,Owatonna,MN,55060,,44.0962,-93.2454,McDonald's
25188,-92.4986,44.0556,25189,25189,m,1116 Broadway Nw,Rochester,MN,55901,,44.0556,-92.4986,McDonald's
25237,-95.9032,45.5743,25238,25238,m,1124 Atlantic Ave Po Box 469,Morris,MN,56267,,45.5743,-95.9032,McDonald's
25286,-91.6815,47.0255,25287,25287,m,1130 7th Ave,Two Harbors,MN,55616,,47.0255,-91.6815,McDonald's
25318,-93.2768,45.1757,25319,25319,m,11364 Foley Blvd Nw,Coon Rapids,MN,55448-3348,,45.1757,-93.2768,McDonald's
25430,-93.2189,45.0673,25431,25431,m,1168 Silver Lake Rd,New Brighton,MN,55112-6325,,45.0673,-93.2189,McDonald's
25557,-94.1942,45.5942,25558,25558,m,120 Twin Rivers Ct,Sartell,MN,56377,,45.5942,-94.1942,McDonald's
25561,-93.949,44.3397,25562,25562,m,120 West St. Julien Street,St. Peter,MN,56082,,44.3397,-93.949,McDonald's
25564,-95.7727,44.4503,25565,25565,m,1200 E College Dr,Marshall,MN,56258-2010,,44.4503,-95.7727,McDonald's
25609,-94.0958,43.6522,25610,25610,m,1202 Buccaneer Dr,Blue Earth,MN,56013,,43.6522,-94.0958,McDonald's
25681,-94.9499,45.7231,25682,25682,m,1210 Timberlane Drive,Sauk Centre,MN,56378,,45.7231,-94.9499,McDonald's
25689,-97.0196,47.9374,25690,25690,m,1212 Central Ave Ne,East Grand Forks,MN,56721-1603,,47.9374,-97.0196,McDonald's
25759,-93.5289,47.2195,25760,25760,m,1221 Pokegama Ave S,Grand Rapids,MN,55744-5044,,47.2195,-93.5289,McDonald's
25802,-93.3929,45.1773,25803,25803,m,12321 Champlin Dr,Champlin,MN,55316-1906,,45.1773,-93.3929,McDonald's
25836,-93.2362,45.1951,25837,25837,m,12401 Ulysses St Ne,Blaine,MN,55434-3940,,45.1951,-93.2362,McDonald's
25847,-92.9999,45.2793,25848,25848,m,1244 W Broadway Po Box 87,Forest Lake,MN,55025-1417,,45.2793,-92.9999,McDonald's
25853,-94.8968,47.4921,25854,25854,m,1245 Paul Bunyan Dr Nw,Bemidji,MN,56601-4123,,47.4921,-94.8968,McDonald's
25958,-95.0967,44.5415,25959,25959,m,1271 E Bridge St,Redwood Falls,MN,56283-1901,,44.5415,-95.0967,McDonald's
25962,-93.0808,44.9078,25963,25963,m,1273 S Robert St,West St. Paul,MN,55118,,44.9078,-93.0808,McDonald's
26011,-93.8637,45.3887,26012,26012,m,12945 Rolling Ridge Road,Becker,MN,55308,,45.3887,-93.8637,McDonald's
26091,-93.3593,45.2072,26092,26092,m,13020 Riverdale Dr (Walmart #1562),Coon Rapids,MN,55448,,45.2072,-93.3593,McDonald's
26117,-92.4754,44.0049,26118,26118,m,"1306 Apache Drive, S.W.",Rochester,MN,55902,,44.0049,-92.4754,McDonald's
26122,-92.4567,46.7016,26123,26123,m,1308 S Highway 33 (Walmart #1929),Cloquet,MN,55720,,46.7016,-92.4567,McDonald's
26153,-93.1936,45.0734,26154,26154,m,1313 W Cord E,Arden Hills,MN,55112,,45.0734,-93.1936,McDonald's
26161,-93.87,45.1986,26162,26162,m,1315 Hwy 25 North (Walmart #1577),Buffalo,MN,55313,,45.1986,-93.87,McDonald's
26252,-92.8774,44.7374,26253,26253,m,1340 S Frontage Rd,Hastings,MN,55033-2426,,44.7374,-92.8774,McDonald's
26278,-92.5516,47.5128,26279,26279,m,1350 S 12th Avenue,Virginia,MN,55792-3232,,47.5128,-92.5516,McDonald's
26287,-93.1647,44.8304,26288,26288,m,1351 Town Centre Dr,Eagan,MN,55123,,44.8304,-93.1647,McDonald's
26297,-93.4526,45.1058,26298,26298,m,13595 83rd Way,Maple Grove,MN,55369-4644,,45.1058,-93.4526,McDonald's
26326,-93.3571,45.2202,26327,26327,m,13731 Round Lake Blvd,Andover,MN,55304,,45.2202,-93.3571,McDonald's
26367,-93.0423,44.9774,26368,26368,m,1388 Maryland Avenue,St. Paul,MN,55106,,44.9774,-93.0423,McDonald's
26450,-92.9932,43.679,26451,26451,m,1402 14th St Nw,Austin,MN,55912,,43.679,-92.9932,McDonald's
26499,-93.9717,44.1669,26500,26500,m,1411 Madison Ave,Mankato,MN,56001-5441,,44.1669,-93.9717,McDonald's
26534,-92.9261,47.3995,26535,26535,m,1419 East 41st Street,Hibbing,MN,55746-3667,,47.3995,-92.9261,McDonald's
26552,-93.2813,44.7464,26553,26553,m,14200 Grand Ave S,Burnsville,MN,55337-5704,,44.7464,-93.2813,McDonald's
26632,-93.2274,45.0,26633,26633,m,1440 Stinson Blvd,Minneapolis,MN,55413-1723,,45.0,-93.2274,McDonald's
26657,-92.9742,45.8462,26658,26658,m,1450 8th St Nw,Pine City,MN,55063-1137,,45.8462,-92.9742,McDonald's
26661,-93.4947,44.9711,26662,26662,m,1450 E Wayzata Blvd,Wayzata,MN,55391-1919,,44.9711,-93.4947,McDonald's
26683,-92.8115,45.0355,26684,26684,m,14545 60th St N,Stillwater,MN,55082-6314,,45.0355,-92.8115,McDonald's
26733,-93.2999,45.1089,26734,26734,m,"1480 - 85th Avenue, North",Brooklyn Park,MN,55444-1416,,45.1089,-93.2999,McDonald's
26761,-93.7771,45.0357,26762,26762,m,1490 Babcock Blvd,Delano,MN,55328,,45.0357,-93.7771,McDonald's
26814,-94.0145,44.1895,26815,26815,m,150 W Lind Ct,Mankato,MN,56001-0400,,44.1895,-94.0145,McDonald's
26865,-93.1315,44.7312,26866,26866,m,15035 Canada Ave,Rosemount,MN,55068-1758,,44.7312,-93.1315,McDonald's
26876,-92.4855,44.0217,26877,26877,m,1505 2nd St Sw,Rochester,MN,55902-0356,,44.0217,-92.4855,McDonald's
26974,-93.3039,45.2469,26975,26975,m,15232 Bluebird Street Nw,Andover,MN,55304,,45.2469,-93.3039,McDonald's
27009,-93.1061,44.9875,27010,27010,m,1535 Rice Street,St. Paul,MN,55117,,44.9875,-93.1061,McDonald's
27092,-93.1663,44.9555,27093,27093,m,1570 W University Ave,St. Paul,MN,55104,,44.9555,-93.1663,McDonald's
27184,-93.5069,44.0933,27185,27185,m,1600 N State St,Waseca,MN,56093-2713,,44.0933,-93.5069,McDonald's
27306,-91.681,44.05,27307,27307,m,1620 Service Dr,Winona,MN,55987-2177,,44.05,-91.681,McDonald's
27436,-93.4348,44.7054,27437,27437,m,16831 Hwy 13 Se,Prior Lake,MN,55372,,44.7054,-93.4348,McDonald's
27511,-95.6041,43.6313,27512,27512,m,1701 Oxford Street,Worthington,MN,56187-1863,,43.6313,-95.6041,McDonald's
27537,-94.4444,44.296,27538,27538,m,1705 S Broadway,New Ulm,MN,56073-3751,,44.296,-94.4444,McDonald's
27541,-95.7013,44.9494,27542,27542,m,1706 E Highway 7,Montevideo,MN,56265,,44.9494,-95.7013,McDonald's
27604,-91.6379,44.0522,27605,27605,m,172 Main St,Winona,MN,55987,,44.0522,-91.6379,McDonald's
27695,-92.8918,44.7394,27696,27696,m,1752 N Frontage Rd (Walmart 1472),Hastings,MN,55033,,44.7394,-92.8918,McDonald's
27706,-92.9731,44.9237,27707,27707,m,1759 Weir Dr,Woodbury,MN,55125-2242,,44.9237,-92.9731,McDonald's
27770,-93.0244,45.0101,27771,27771,m,1797 Cope Ave,Maplewood,MN,55109-2608,,45.0101,-93.0244,McDonald's
27854,-96.6114,47.7884,27855,27855,m,1811 University Ave,Crookston,MN,56716,,47.7884,-96.6114,McDonald's
27876,-93.5525,45.2877,27877,27877,m,18185 Zane St. (Walmart),Elk River,MN,55330,,45.2877,-93.5525,McDonald's
27940,-93.0229,44.9498,27941,27941,m,1841 Suburban Ave,St. Paul,MN,55119,,44.9498,-93.0229,McDonald's
27976,-95.1139,43.8625,27977,27977,m,186 6th St,Windom,MN,56101-1916,,43.8625,-95.1139,McDonald's
28165,-93.9483,44.1703,28166,28166,m,1921 Adams Street,Mankato,MN,56002,,44.1703,-93.9483,McDonald's
28200,-92.5111,44.0795,28201,28201,m,1937 West Frontage Road,Rochester,MN,55901,,44.0795,-92.5111,McDonald's
28294,-93.208,44.8195,28295,28295,m,1995 Silver Bell Rd,Eagan,MN,55122-1102,,44.8195,-93.208,McDonald's
28316,-95.1363,46.4426,28317,28317,m,20 Ash Ave Nw,Wadena,MN,56482,,46.4426,-95.1363,McDonald's
28493,-93.2543,44.6578,28494,28494,m,20158 Icenic Trail,Lakeville,MN,55044,,44.6578,-93.2543,McDonald's
28506,-93.1253,44.8829,28507,28507,m,2020 Dodd Rd,Mendota Heights,MN,55120,,44.8829,-93.1253,McDonald's
28635,-93.0123,45.0768,28636,28636,m,2070 E Cord E,White Bear Lake,MN,55110,,45.0768,-93.0123,McDonald's
28641,-93.1666,45.003,28642,28642,m,2075 Snelling Ave N,Roseville,MN,55113,,45.003,-93.1666,McDonald's
28656,-96.1092,46.2893,28657,28657,m,2085 College Way,Fergus Falls,MN,56537-1061,,46.2893,-96.1092,McDonald's
28687,-94.2178,45.5498,28688,28688,m,210 2nd St S,Waite Park,MN,56387,,45.5498,-94.2178,McDonald's
28691,-93.2738,44.9485,28692,28692,m,210 E Lake St,Minneapolis,MN,55408-2450,,44.9485,-93.2738,McDonald's
28737,-93.2936,44.6444,28738,28738,m,21044 Kenrick Ave,Lakeville,MN,55044-8585,,44.6444,-93.2936,McDonald's
28739,-92.0546,46.8141,28740,28740,m,2105 London Rd,Duluth,MN,55812-2128,,46.8141,-92.0546,McDonald's
28807,-94.1832,45.553,28808,28808,m,2120 W Division St,St. Cloud,MN,56301,,45.553,-94.1832,McDonald's
28835,-93.551,45.1962,28836,28836,m,21300 Rogers Drive,Rogers,MN,55374-9540,,45.1962,-93.551,McDonald's
28942,-96.7677,46.8724,28943,28943,m,"220 8th Street, South",Moorhead,MN,56560-2811,,46.8724,-96.7677,McDonald's
28979,-93.1931,45.0954,28980,28980,m,2201 Hwy 10,Mounds View,MN,55112-4924,,45.0954,-93.1931,McDonald's
29027,-93.1916,44.9618,29028,29028,m,2213 University Avenue,St. Paul,MN,55114,,44.9618,-93.1916,McDonald's
29166,-93.1058,45.0093,29167,29167,m,2260 Rice St,Little Canada,MN,55113,,45.0093,-93.1058,McDonald's
29176,-93.5087,44.7994,29177,29177,m,227 Marschall Rd,Shakopee,MN,55379-1674,,44.7994,-93.5087,McDonald's
29228,-94.4475,43.673,29229,29229,m,2300 N. State Street,Fairmont,MN,56031-3633,,43.673,-94.4475,McDonald's
29267,-93.4214,44.8563,29268,29268,m,2308 Eden Prairie Ctr,Eden Prairie,MN,55344,,44.8563,-93.4214,McDonald's
29279,-93.3682,45.3881,29280,29280,m,23100 Saint Francis Blvd,St. Francis,MN,55070,,45.3881,-93.3682,McDonald's
29306,-93.1646,44.9044,29307,29307,m,2322 West 7th Street,St. Paul,MN,55116,,44.9044,-93.1646,McDonald's
29385,-94.2117,45.7582,29386,29386,m,2378 Pine Road Nw,Rice,MN,56367,,45.7582,-94.2117,McDonald's
29418,-93.278,44.9591,29419,29419,m,2400 Nicollet Ave S,Minneapolis,MN,55404-3449,,44.9591,-93.278,McDonald's
29462,-93.5846,44.9882,29463,29463,m,2410 W Industrial Blvd,Long Lake,MN,55356,,44.9882,-93.5846,McDonald's
29516,-93.2654,45.0715,29517,29517,m,244 57th Ave Ne,Fridley,MN,55432-5420,,45.0715,-93.2654,McDonald's
29826,-93.6374,44.6706,29827,29827,m,260 Triangle Lane,Jordan,MN,55352,,44.6706,-93.6374,McDonald's
30027,-93.4535,45.01,30028,30028,m,2705 Annapolis Cir,Plymouth,MN,55441,,45.01,-93.4535,McDonald's
30073,-92.9859,44.9631,30074,30074,m,2730 Minnehaha Avenue,Maplewood,MN,55119,,44.9631,-92.9859,McDonald's
30128,-92.5739,44.5664,30129,30129,m,2770 N Service Dr,Red Wing,MN,55066-1985,,44.5664,-92.5739,McDonald's
30200,-93.3588,43.6862,30201,30201,m,2808 Bridge Avenue,Albert Lea,MN,56007-2082,,43.6862,-93.3588,McDonald's
30346,-93.3163,44.7749,30347,30347,m,2901 W Hwy 13,Burnsville,MN,55337-1707,,44.7749,-93.3163,McDonald's
30392,-93.2981,44.949,30393,30393,m,2929 Hennepin Ave S,Minneapolis,MN,55408-1955,,44.949,-93.2981,McDonald's
30407,-93.0259,45.0307,30408,30408,m,2935 Southlawn Dr,Maplewood,MN,55109,,45.0307,-93.0259,McDonald's
30421,-92.5851,44.5662,30422,30422,m,295 Tyler Road S (Walmart #3534),Red Wing,MN,55066,,44.5662,-92.5851,McDonald's
30474,-93.0963,44.9482,30475,30475,m,30 E 7th St,St. Paul,MN,55101,,44.9482,-93.0963,McDonald's
30554,-96.7329,46.8756,30555,30555,m,3009 Hwy 10 E,Moorhead,MN,56560-2549,,46.8756,-96.7329,McDonald's
30622,-93.8718,45.1786,30623,30623,m,303 7th St Ne,Buffalo,MN,55313-1744,,45.1786,-93.8718,McDonald's
30656,-94.4523,45.6066,30657,30657,m,304 Blattner Drive,Avon,MN,56310,,45.6066,-94.4523,McDonald's
30665,-93.1235,44.8469,30666,30666,m,3045 Holiday Ln,Eagan,MN,55122,,44.8469,-93.1235,McDonald's
30710,-93.0439,44.834,30711,30711,m,3075 80th St E,Inver Grove Heights,MN,55075,,44.834,-93.0439,McDonald's
30717,-93.3462,45.1745,30718,30718,m,3080 Coon Rapids Blvd,Coon Rapids,MN,55433-3474,,45.1745,-93.3462,McDonald's
30805,-93.2268,44.9485,30806,30806,m,3110 E Lake St,Minneapolis,MN,55406-2002,,44.9485,-93.2268,McDonald's
30850,-94.6318,43.9809,30851,30851,m,313 1st Ave S,St. James,MN,56081,,43.9809,-94.6318,McDonald's
30915,-92.9066,44.4905,30916,30916,m,31675 65th Ave,Cannon Falls,MN,55009,,44.4905,-92.9066,McDonald's
31026,-93.3205,44.8828,31027,31027,m,3220 Southdale Cir,Edina,MN,55435-2511,,44.8828,-93.3205,McDonald's
31046,-93.3465,45.1983,31047,31047,m,3231 Northdale Blvd,Coon Rapids,MN,55433,,45.1983,-93.3465,McDonald's
31127,-93.7498,45.3325,31128,31128,m,330 Jefferson Blvd,Big Lake,MN,55309,,45.3325,-93.7498,McDonald's
31420,-93.6585,45.2102,31421,31421,m,350 Central Ave E,St. Michael,MN,55376,,45.2102,-93.6585,McDonald's
31899,-93.2414,44.8523,31900,31900,m,391 South Blvd,Bloomington,MN,55425,,44.8523,-93.2414,McDonald's
31957,-93.47,44.7849,31958,31958,m,3990 12th Ave,Shakopee,MN,55379,,44.7849,-93.47,McDonald's
31958,-93.2653,44.7564,31959,31959,m,3990 County Rd #42,Savage,MN,55378,,44.7564,-93.2653,McDonald's
32027,-93.3308,44.8104,32028,32028,m,4000 W Old Shakopee Rd,Bloomington,MN,55437-2947,,44.8104,-93.3308,McDonald's
32057,-93.092,44.9484,32058,32058,m,401 N Robert St Ste 223,St. Paul,MN,55101,,44.9484,-93.092,McDonald's
32163,-93.2344,44.9801,32164,32164,m,407 15th Ave Se,Minneapolis,MN,55414-2009,,44.9801,-93.2344,McDonald's
32206,-93.9199,44.7702,32207,32207,m,410 Faxon Road North,Norwood Young America,MN,55368,,44.7702,-93.9199,McDonald's
32264,-93.2243,44.9283,32265,32265,m,4121 Hiawatha Ave,Minneapolis,MN,55406-3357,,44.9283,-93.2243,McDonald's
32300,-95.838,46.8156,32301,32301,m,415 E Frazee,Detroit Lakes,MN,56501-3605,,46.8156,-95.838,McDonald's
32376,-93.3806,45.033,32377,32377,m,4201 Winnetka Ave,New Hope,MN,55428-4924,,45.033,-93.3806,McDonald's
32465,-92.1663,46.7395,32466,32466,m,428 N Central,West Duluth,MN,55807-2530,,46.7395,-92.1663,McDonald's
32496,-93.206,44.8827,32497,32497,m,4300 Glumac Dr Box 1,St. Paul,MN,55111,,44.8827,-93.206,McDonald's
32503,-92.1851,46.8223,32504,32504,m,4301 Menard Dr,Hermantown,MN,55811,,46.8223,-92.1851,McDonald's
32528,-94.1479,45.4949,32529,32529,m,4311 Clearwater Rd,St. Cloud,MN,56301,,45.4949,-94.1479,McDonald's
32661,-93.2882,45.036,32662,32662,m,4435 Lyndale Ave N,Minneapolis,MN,55412-1436,,45.036,-93.2882,McDonald's
32791,-94.2269,45.5602,32792,32792,m,456 Great Oak Drive,Waite Park,MN,56387,,45.5602,-94.2269,McDonald's
32797,-93.2193,44.7917,32798,32798,m,4565 Erin Lane,Eagan,MN,55121,,44.7917,-93.2193,McDonald's
32824,-93.3385,45.032,32825,32825,m,4601 Lake Dr,Robbinsdale,MN,55422,,45.032,-93.3385,McDonald's
32829,-93.2472,45.052,32830,32830,m,4605 Central Ave Ne,Minneapolis,MN,55421-2435,,45.052,-93.2472,McDonald's
32858,-93.4269,44.9194,32859,32859,m,4637 Shady Oak Road,Minnetonka,MN,55343-8838,,44.9194,-93.4269,McDonald's
32918,-93.1096,44.9554,32919,32919,m,471 Marion Street,St. Paul,MN,55103,,44.9554,-93.1096,McDonald's
33002,-93.0087,45.3366,33003,33003,m,4811 E Viking Blvd,Wyoming,MN,55092,,45.3366,-93.0087,McDonald's
33073,-95.3882,45.8455,33074,33074,m,4910 Hwy 29 S,Alexandria,MN,56308-2905,,45.8455,-95.3882,McDonald's
33099,-93.0775,45.0091,33100,33100,m,4950 Highway #61,White Bear Lake,MN,55110,,45.0091,-93.0775,McDonald's
33159,-93.5929,44.7943,33160,33160,m,500 Highway 212 East,Chaska,MN,55318-2148,,44.7943,-93.5929,McDonald's
33292,-94.182,46.36,33293,33293,m,505 Ne Washington St,Brainerd,MN,56401,,46.36,-94.182,McDonald's
33463,-94.8858,47.4907,33464,33464,m,520 Paul Bunyan Dr,Bemidji,MN,56601,,47.4907,-94.8858,McDonald's
33471,-93.3465,44.9316,33472,33472,m,5200 Excelsior Blvd,St. Louis Park,MN,55416,,44.9316,-93.3465,McDonald's
33485,-94.218,46.3571,33486,33486,m,521 W Washington St,Brainerd,MN,56401-2927,,46.3571,-94.218,McDonald's
33524,-93.2768,44.2946,33525,33525,m,525 N.W. 4th Street,Faribault,MN,55021-5032,,44.2946,-93.2768,McDonald's
33648,-93.3617,45.0514,33649,33649,m,5400 W Broadway,Crystal,MN,55428-3506,,45.0514,-93.3617,McDonald's
33735,-92.5055,44.0799,33736,33736,m,5500 E Frontage Rd,Rochester,MN,55901,,44.0799,-92.5055,McDonald's
33756,-93.1229,44.9307,33757,33757,m,551 Jefferson St,St. Paul,MN,55102,,44.9307,-93.1229,McDonald's
33772,-93.322,45.0551,33773,33773,m,5525 Xerxes Ave N,Brooklyn Center,MN,55430-2856,,45.0551,-93.322,McDonald's
33786,-93.2708,44.9781,33787,33787,m,555 Nicollet Mall Gaviidae Commons,Minneapolis,MN,55402-1066,,44.9781,-93.2708,McDonald's
33809,-93.0934,44.9472,33810,33810,m,56 E 6th St #213,St. Paul,MN,55101,,44.9472,-93.0934,McDonald's
33953,-93.0425,44.8643,33954,33954,m,5760 Cahill Ave,Inver Grove Heights,MN,55075,,44.8643,-93.0425,McDonald's
34008,-92.997,45.5101,34009,34009,m,5835 St. Croix Trail,North Branch,MN,55056,,45.5101,-92.997,McDonald's
34098,-93.4309,44.8521,34099,34099,m,598 Prairie Center Drive,Eden Prairie,MN,55344-7917,,44.8521,-93.4309,McDonald's
34301,-96.3077,43.9949,34302,34302,m,609 8th Ave Se,Pipestone,MN,56164,,43.9949,-96.3077,McDonald's
34303,-93.3622,43.6499,34304,34304,m,609 E Main St,Albert Lea,MN,56007-2936,,43.6499,-93.3622,McDonald's
34315,-93.1106,45.1828,34316,34316,m,610 Apollo Dr,Lino Lakes,MN,55014,,45.1828,-93.1106,McDonald's
34491,-93.4433,45.0671,34492,34492,m,6255 Sycamore Lane North,Maple Grove,MN,55369-6322,,45.0671,-93.4433,McDonald's
34539,-93.3594,44.9426,34540,34540,m,6320 W Lake St,St. Louis Park,MN,55416,,44.9426,-93.3594,McDonald's
34757,-93.2873,44.8816,34758,34758,m,6645 Lyndale Avenue South,Richfield,MN,55423,,44.8816,-93.2873,McDonald's
34893,-93.2601,44.1714,34894,34894,m,6874 W Frontage Rd,Medford,MN,55049,,44.1714,-93.2601,McDonald's
34970,-93.5572,45.3102,34971,34971,m,700 Dodge Avenue,Elk River,MN,55330-1977,,45.3102,-93.5572,McDonald's
34971,-93.2657,44.8598,34972,34972,m,700 E 79th St (Walmart #2198),Bloomington,MN,55420,,44.8598,-93.2657,McDonald's
35019,-93.5832,45.5576,35020,35020,m,701 Northland Drive,Princeton,MN,55371,,45.5576,-93.5832,McDonald's
35118,-92.4575,46.7067,35119,35119,m,709 Hwy 33 S,Cloquet,MN,55720-2659,,46.7067,-92.4575,McDonald's
35135,-92.8927,47.4807,35136,35136,m,710 Iron Miner Memorial Road,Chisholm,MN,55719,,47.4807,-92.8927,McDonald's
35213,-95.0424,45.1172,35214,35214,m,717 S 1st St,Willmar,MN,56201-3503,,45.1172,-95.0424,McDonald's
35251,-93.3801,44.9867,35252,35252,m,720 N Winnetka Ave,Golden Valley,MN,55427-4530,,44.9867,-93.3801,McDonald's
35257,-93.4063,45.2077,35258,35258,m,720 W Main St,Anoka,MN,55303-1581,,45.2077,-93.4063,McDonald's
35328,-93.1951,45.0363,35329,35329,m,729 Long Lake Rd,New Brighton,MN,55112-7770,,45.0363,-93.1951,McDonald's
35333,-94.2529,46.3444,35334,35334,m,7295 Glory Road,Baxter,MN,56425,,46.3444,-94.2529,McDonald's
35378,-92.9605,44.8312,35379,35379,m,7355 Point Douglas Rd,Cottage Grove,MN,55016,,44.8312,-92.9605,McDonald's
35532,-93.3285,44.8665,35533,35533,m,7565 France Avenue,Edina,MN,55435-4704,,44.8665,-93.3285,McDonald's
35580,-93.2203,44.7322,35581,35581,m,7667 150th St W,Apple Valley,MN,55124-7166,,44.7322,-93.2203,McDonald's
35587,-93.377,45.0941,35588,35588,m,7685 West Broadway,Brooklyn Park,MN,55428,,45.0941,-93.377,McDonald's
35595,-93.5584,44.9025,35596,35596,m,770 Excelsior Blvd,Excelsior,MN,55331-1968,,44.9025,-93.5584,McDonald's
35739,-93.3018,44.859,35740,35740,m,7997 Southtown Ctr,Bloomington,MN,55431,,44.859,-93.3018,McDonald's
35856,-93.2785,44.8576,35857,35857,m,8040 Nicollet Ave,Bloomington,MN,55420-1230,,44.8576,-93.2785,McDonald's
35899,-93.2614,44.9538,35900,35900,m,810 E 27th St,Minneapolis,MN,55407-3701,,44.9538,-93.2614,McDonald's
35910,-93.2653,45.1153,35911,35911,m,8100 University Ave Ne,Fridley,MN,55432-1864,,45.1153,-93.2653,McDonald's
35912,-93.4153,44.7779,35913,35913,m,8101 Old Carriage Ct (Walmart #3513),Shakopee,MN,55379,,44.7779,-93.4153,McDonald's
35938,-93.2418,45.1154,35939,35939,m,8124 Hwy 65,Spring Lake Park,MN,55432-2020,,45.1154,-93.2418,McDonald's
36012,-93.5434,45.0465,36013,36013,m,822 Hwy 55,Medina,MN,55340,,45.0465,-93.5434,McDonald's
36120,-94.1413,45.5694,36121,36121,m,840 E Saint Germain,St. Cloud,MN,56304,,45.5694,-94.1413,McDonald's
36122,-93.3181,43.6579,36123,36123,m,840 Happy Trails Ln,Albert Lea,MN,56007,,43.6579,-93.3181,McDonald's
36175,-93.0813,45.0729,36176,36176,m,850 E Cord E (Walmart #2087),Vadnais Heights,MN,55127,,45.0729,-93.0813,McDonald's
36205,-95.3856,45.8853,36206,36206,m,853 Sthy 29 N,Alexandria,MN,56308,,45.8853,-95.3856,McDonald's
36415,-93.5234,44.8608,36416,36416,m,90 Lake Dr E,Chanhassen,MN,55317-9319,,44.8608,-93.5234,McDonald's
36447,-93.3967,45.109,36448,36448,m,9000 85th Ave North,Brooklyn Park,MN,55445-2153,,45.109,-93.3967,McDonald's
36490,-94.5832,48.7116,36491,36491,m,903 Main Street,Baudette,MN,56623,,48.7116,-94.5832,McDonald's
36499,-91.6199,44.0286,36500,36500,m,905 E Hwy 61,Winona,MN,55987,,44.0286,-91.6199,McDonald's
36555,-93.8001,44.8401,36556,36556,m,910 Strong Dr,Waconia,MN,55387,,44.8401,-93.8001,McDonald's
36615,-93.2915,44.9993,36616,36616,m,916 W Broadway,Minneapolis,MN,55411,,44.9993,-93.2915,McDonald's
36659,-93.3963,44.8358,36660,36660,m,9240 Bloomington Ferry Rd,Bloomington,MN,55438-1429,,44.8358,-93.3963,McDonald's
36709,-92.2315,46.6925,36710,36710,m,9310 W Skyline Pky,Proctor,MN,55810,,46.6925,-92.2315,McDonald's
36710,-93.3984,45.0074,36711,36711,m,9315 Medicine Lake Rd,Golden Valley,MN,55427-3112,,45.0074,-93.3984,McDonald's
36822,-93.2871,44.831,36823,36823,m,9516 Garfield Ave S,Bloomington,MN,55420-4213,,44.831,-93.2871,McDonald's
36832,-93.4882,45.1276,36833,36833,m,9530 Blackoaks Lane North,Maple Grove,MN,55311,,45.1276,-93.4882,McDonald's
36836,-92.6352,44.0292,36837,36837,m,955 High Point Drive Ne,Byron,MN,55920,,44.0292,-92.6352,McDonald's
37144,-96.148,48.1071,37145,37145,m,Highway 59 South,Thief River Falls,MN,56701-0403,,48.1071,-96.148,McDonald's
37189,-93.3789,48.584,37190,37190,m,Hwy 55 & 17th St,International Falls,MN,56649,,48.584,-93.3789,McDonald's
37353,-93.1969,44.8867,37354,37354,m,Mls/St Paul Airport Gate 18,St. Paul,MN,55111,,44.8867,-93.1969,McDonald's
37363,-93.8053,46.242,37364,37364,m,N State Hwy 169 S,Garrison,MN,56450,,46.242,-93.8053,McDonald's
37882,-94.1414,45.5693,37883,37883,t,10 - 8th Avenue S E,St. Cloud,MN,56304,(320)253-2901,45.5693,-94.1414,Taco Bell
37947,-94.3756,44.8711,37948,37948,t,1004 Highway 15 South,Hutchinson,MN,55350,(320)587-7477,44.8711,-94.3756,Taco Bell
38056,-92.152,46.8038,38057,38057,t,1031 West Central Entrance,Duluth,MN,55811,(218)726-1077,46.8038,-92.152,Taco Bell
38156,-93.2663,45.1625,38157,38157,t,10729 University Ave Ne,Blaine,MN,55434,(763)757-8976,45.1625,-93.2663,Taco Bell
38192,-93.2707,44.9763,38193,38193,t,109 South 7th Street,Minneapolis,MN,55402,(612)359-9527,44.9763,-93.2707,Taco Bell
38247,-93.1465,44.9926,38248,38248,t,1101 Larpenteur Avenue W.,Roseville,MN,55113,(651)489-6891,44.9926,-93.1465,Taco Bell
38331,-93.5048,44.7817,38332,38332,t,1120 Vierling Drive E,Shakopee,MN,55379,(952)233-1561,44.7817,-93.5048,Taco Bell
38490,-93.3909,45.169,38491,38491,t,11990 Business Park Blvd N.,Champlin,MN,55316,(763)354-1006,45.169,-93.3909,Taco Bell
38581,-93.3634,43.6507,38582,38582,t,122 Bridge Avenue,Albert Lea,MN,56007,(507)377-0800,43.6507,-93.3634,Taco Bell
38619,-92.8699,44.7385,38620,38620,t,1229 N Frontage Rd,Hastings,MN,55033,(651)438-9229,44.7385,-92.8699,Taco Bell
38636,-93.7973,45.3002,38637,38637,t,124 E 7th St,Monticello,MN,55362,(763)295-4300,45.3002,-93.7973,Taco Bell
38685,-93.4406,44.9702,38686,38686,t,12739 Wayzata Blvd/Ridgedale M,Minnetonka,MN,55305,(952)544-0128,44.9702,-93.4406,Taco Bell
38691,-92.9968,45.2794,38692,38692,t,1279 West Broadway,Forest Lake,MN,55025,(651)982-0434,45.2794,-92.9968,Taco Bell
38720,-93.1484,44.8312,38721,38721,t,1295 Towncentre Dr,Eagan,MN,55123,(651)681-9043,44.8312,-93.1484,Taco Bell
38765,-93.358,45.2077,38766,38766,t,13057 Round Lake Blvd,Coon Rapids,MN,55448,(763)323-4731,45.2077,-93.358,Taco Bell
38807,-93.4401,44.9656,38808,38808,t,13201 Ridgedale Drive,Minnetonka,MN,55305,(952)542-8250,44.9656,-93.4401,Taco Bell
38864,-93.5526,45.1979,38865,38865,t,13500 Rogers Drive,Rogers,MN,55374,(763)428-1620,45.1979,-93.5526,Taco Bell
38915,-93.4557,45.1043,38916,38916,t,13910 Grove Dr,Maple Grove,MN,55369,(763)494-9268,45.1043,-93.4557,Taco Bell
38958,-93.3796,44.7491,38959,38959,t,14040 S Hwy 13,Savage,MN,55378,(952)226-6210,44.7491,-93.3796,Taco Bell
39011,-94.245,46.3574,39012,39012,t,14175 Edgewood Dr,Baxter,MN,56425,(218)828-6377,46.3574,-94.245,Taco Bell
39022,-93.2787,44.746,39023,39023,t,14231 Nicollet Ave,Burnsville,MN,55337,(952)892-6670,44.746,-93.2787,Taco Bell
39066,-92.8119,45.0354,39067,39067,t,14529 60th Street North,Oak Park Heights,MN,55082,(651)430-3888,45.0354,-92.8119,Taco Bell
39069,-91.6751,44.0487,39070,39070,t,1455 Gilmore Ave,Winona,MN,55987,(507)452-1530,44.0487,-91.6751,Taco Bell
39095,-93.0253,44.9861,39096,39096,t,1484 White Bear Avenue,St. Paul,MN,55106,(651)778-8776,44.9861,-93.0253,Taco Bell
39120,-93.2325,45.168,39121,39121,t,1500 109th Ave Ne,Blaine,MN,55449,(763)354-1000,45.168,-93.2325,Taco Bell
39140,-94.4474,43.667,39141,39141,t,1501 South State St,Fairmont,MN,56031,(507)235-6676,43.667,-94.4474,Taco Bell
39172,-93.471,44.9214,39173,39173,t,15110 W Highway 7,Minnetonka,MN,55345,(952)933-3199,44.9214,-93.471,Taco Bell
39177,-93.2181,44.731,39178,39178,t,15150 Cedar Avenue,Apple Valley,MN,55124,(952)891-5500,44.731,-93.2181,Taco Bell
39226,-93.2273,45.0032,39227,39227,t,1540 Stinson Blvd Ne,Minneapolis,MN,55413,(612)379-8044,45.0032,-93.2273,Taco Bell
39363,-93.0806,44.8969,39364,39364,t,1630 S. Roberts Street,St. Paul,MN,55118,(651)451-7552,44.8969,-93.0806,Taco Bell
39404,-93.106,44.9899,39405,39405,t,1672 Rice St,St. Paul,MN,55117,(651)489-3891,44.9899,-93.106,Taco Bell
39418,-93.4935,45.0188,39419,39419,t,16855 County Road 24,Plymouth,MN,55447,(763)383-1103,45.0188,-93.4935,Taco Bell
39586,-93.2822,44.6933,39587,39587,t,17750 Kenwood Trail,Lakeville,MN,55044,(952)898-1213,44.6933,-93.2822,Taco Bell
39674,-93.9609,44.1667,39675,39675,t,1819 Madison Avenue,Mankato,MN,56001,(507)345-6159,44.1667,-93.9609,Taco Bell
39744,-93.1803,45.0114,39745,39745,t,1889 West Perimeter Road,Roseville,MN,55113,(651)636-3991,45.0114,-93.1803,Taco Bell
39761,-93.1603,44.8837,39762,39762,t,1901 Highway 13 W,Burnsville,MN,55337,(952)894-4160,44.8837,-93.1603,Taco Bell
39791,-93.5613,45.3079,39792,39792,t,19131 Freeport Avenue,Elk River,MN,55330,(763)241-1404,45.3079,-93.5613,Taco Bell
39818,-93.2452,44.9636,39819,39819,t,1931 Minnehaha,Minneapolis,MN,55404,(612)370-0024,44.9636,-93.2452,Taco Bell
39844,-93.0172,44.9498,39845,39845,t,1960 Suburban Avenue,St. Paul,MN,55119,(651)739-2118,44.9498,-93.0172,Taco Bell
39846,-93.0194,45.0358,39847,39847,t,1965 County Road D,Maplewood,MN,55109,(651)777-0205,45.0358,-93.0194,Taco Bell
39897,-93.204,44.7902,39898,39898,t,2000 Cliff Rd,Eagan,MN,55122,(651)688-6068,44.7902,-93.204,Taco Bell
40165,-92.4793,44.0049,40166,40166,t,215 Apache Mall,Rochester,MN,55902,(507)282-1650,44.0049,-92.4793,Taco Bell
40169,-93.2739,44.9483,40170,40170,t,215 East Lake Street,Minneapolis,MN,55408,(612)827-1203,44.9483,-93.2739,Taco Bell
40213,-93.005,45.0122,40214,40214,t,2199 Highway 36 East,St. Paul,MN,55109,(651)779-5986,45.0122,-93.005,Taco Bell
40237,-93.3075,44.8837,40238,40238,t,2208 W. 66th,Richfield,MN,55423,(612)869-5131,44.8837,-93.3075,Taco Bell
40249,-93.1945,45.0968,40250,40250,t,2219 Highway 10,St. Paul,MN,55112,(763)785-0676,45.0968,-93.1945,Taco Bell
40348,-93.0177,45.0372,40349,40349,t,2304 Maplewood Mall,Maplewood,MN,55109,(651)770-0978,45.0372,-93.0177,Taco Bell
40547,-93.2358,44.9483,40548,40548,t,2500 East Lake Street,Minneapolis,MN,55406,(612)721-5701,44.9483,-93.2358,Taco Bell
40605,-93.1721,44.9008,40606,40606,t,2545 W. Seventh St,St. Paul,MN,55116,(651)698-5701,44.9008,-93.1721,Taco Bell
40782,-92.9853,45.0503,40783,40783,t,2741 County Rd E,White Bear Lake,MN,55110,(651)426-9657,45.0503,-92.9853,Taco Bell
40902,-93.2587,45.129,40903,40903,t,291 Highway 10 Ne,Blaine,MN,55434,(763)784-6218,45.129,-93.2587,Taco Bell
41092,-96.7328,46.8765,41093,41093,t,3102 Hwy 10 E,Moorhead,MN,56560,(218)233-8708,46.8765,-96.7328,Taco Bell
41193,-96.768,46.8714,41194,41194,t,321 South 8th Street,Moorhead,MN,56560,(218)233-7928,46.8714,-96.768,Taco Bell
41194,-93.3209,44.8817,41195,41195,t,3210 Southdale Circle,Edina,MN,55435,(952)925-1281,44.8817,-93.3209,Taco Bell
41284,-94.1987,45.5496,41285,41285,t,3311 2nd St,St. Cloud,MN,56301,(320)251-4744,45.5496,-94.1987,Taco Bell
41325,-93.245,44.847,41326,41326,t,338 North Garden,Bloomington,MN,55425,(952)854-5255,44.847,-93.245,Taco Bell
41384,-93.1063,45.0465,41385,41385,t,3464 N. Rice Street,St. Paul,MN,55126,(651)481-9322,45.0465,-93.1063,Taco Bell
41615,-92.9723,45.5103,41616,41616,t,38706 14th Avenue,North Branch,MN,55056,(651)237-0544,45.5103,-92.9723,Taco Bell
41687,-92.5026,44.065,41688,41688,t,4000 Market Place,Rochester,MN,55901,(507)292-1863,44.065,-92.5026,Taco Bell
41714,-93.2148,44.9483,41715,41715,t,4020 E Lake St,Minneapolis,MN,55406,(612)724-5100,44.9483,-93.2148,Taco Bell
41764,-93.1848,44.4371,41765,41765,t,410 S Hwy 3,Northfield,MN,55057,(507)663-7011,44.4371,-93.1848,Taco Bell
41871,-93.1671,45.1622,41872,41872,t,4240 Pheasant Ridge Drive,Blaine,MN,55449,(763)259-0762,45.1622,-93.1671,Taco Bell
41877,-93.2855,44.9991,41878,41878,t,425 W Broadway,Minneapolis,MN,55411,(612)521-1895,44.9991,-93.2855,Taco Bell
42136,-95.3877,45.847,42137,42137,t,4817 Hwy 29 S,Alexandria,MN,56308,(320)763-9515,45.847,-95.3877,Taco Bell
42168,-93.2474,45.0574,42169,42169,t,4900 Central Ave Ne,Minneapolis,MN,55421,(763)571-5494,45.0574,-93.2474,Taco Bell
42225,-93.2405,44.8539,42226,42226,t,5000 Ctr Court/Mall Of America,Bloomington,MN,55425,(952)883-8580,44.8539,-93.2405,Taco Bell
42256,-92.9341,46.011,42257,42257,t,503 Fire Monument Road,Hinckley,MN,55037,(320)384-7939,46.011,-92.9341,Taco Bell
42320,-94.8995,47.4926,42321,42321,t,515 Paul Bunyan Drive,Bemidji,MN,56601,(218)751-3498,47.4926,-94.8995,Taco Bell
42327,-92.4631,44.0283,42328,42328,t,516 N Broadway,Rochester,MN,55906,(507)282-1868,44.0283,-92.4631,Taco Bell
42486,-93.3242,45.0553,42487,42487,t,5532 Brooklyn Blvd,Brooklyn Center,MN,55429,(763)560-5203,45.0553,-93.3242,Taco Bell
42538,-93.1669,44.9578,42539,42539,t,565 No Snelling,St. Paul,MN,55104,(651)646-5900,44.9578,-93.1669,Taco Bell
42876,-93.4035,45.2065,42877,42877,t,647 W Main St,Anoka,MN,55303,(763)421-0609,45.2065,-93.4035,Taco Bell
42935,-93.3636,44.9709,42936,42936,t,6620 Wayzata Blvd,Golden Valley,MN,55426,(763)542-8401,44.9709,-93.3636,Taco Bell
42982,-93.2414,44.0841,42983,42983,t,681 West Bridge Street,Owatonna,MN,55060,(507)444-0242,44.0841,-93.2414,Taco Bell
43026,-94.0009,44.146,43027,43027,t,7 Centennial Student Un,Mankato,MN,56001,(507)389-2812,44.146,-94.0009,Taco Bell
43086,-94.4655,44.32,43087,43087,t,707 North Minnesota,New Ulm,MN,56073,(507)354-2421,44.32,-94.4655,Taco Bell
43103,-93.371,45.0546,43104,43104,t,7100 Bass Lake,New Hope,MN,55428,(763)537-4737,45.0546,-93.371,Taco Bell
43166,-93.2635,45.1002,43167,43167,t,7295 University Ave Ne,Fridley,MN,55432,(763)502-0399,45.1002,-93.2635,Taco Bell
43278,-93.2232,44.7328,43279,43279,t,7715 150th Street West,Apple Valley,MN,55124,(952)953-4553,44.7328,-93.2232,Taco Bell
43431,-93.2878,44.7469,43432,43432,t,810 County Road 42 West,Burnsville,MN,55337,(952)435-8611,44.7469,-93.2878,Taco Bell
43459,-93.3896,44.9345,43460,43460,t,819 Cambridge,Hopkins,MN,55343,(952)938-5226,44.9345,-93.3896,Taco Bell
43555,-93.4316,44.8505,43556,43556,t,8450 Joiner Way,Eden Prairie,MN,55344,(952)942-5766,44.8505,-93.4316,Taco Bell
43562,-92.9337,44.9414,43563,43563,t,8473 Tamarack Road,Woodbury,MN,55125,(651)501-8364,44.9414,-92.9337,Taco Bell
43591,-93.3054,45.1103,43592,43592,t,8530 Edinburgh Centre Dr,Brooklyn Park,MN,55443,(763)315-2929,45.1103,-93.3054,Taco Bell
43602,-93.3911,45.1089,43603,43603,t,8575 Aspen Lane North,Brooklyn Park,MN,55445,(763)315-4426,45.1089,-93.3911,Taco Bell
43612,-92.9317,44.8144,43613,43613,t,8623 E Point Douglas Rd S,Cottage Grove,MN,55016,(651)768-9933,44.8144,-92.9317,Taco Bell
43785,-93.2886,44.8364,43786,43786,t,9230 Lyndale Ave South,Bloomington,MN,55420,(952)888-7133,44.8364,-93.2886,Taco Bell
43891,-93.5442,44.8622,43892,43892,t,975 West 78th Street,Chanhassen,MN,55317,(952)470-8909,44.8622,-93.5442,Taco Bell
